{
  "type": "FeatureCollection",
  "features": [
    {
      "type": "Feature",
      "properties": {
        "norad_id": 30040,
        "name": "FENGYUN 1C DEB",
        "group": "fengyun-1c-debris",
        "lat": 8.384609693803613,
        "lon": 174.69566748666597,
        "alt_km": 793.6713062623085,
        "timestamp": "2025-12-02T15:49:07.462923+00:00",
        "meta_object_name": "FENGYUN 1C DEB",
        "meta_object_id": "1999-025NR",
        "meta_epoch": "2025-12-02T00:15:42.313824",
        "meta_mean_motion": 14.36944998,
        "meta_eccentricity": 0.00328571,
        "meta_inclination": 98.2346,
        "meta_ra_of_asc_node": 352.8524,
        "meta_arg_of_pericenter": 345.9735,
        "meta_mean_anomaly": 74.2438,
        "meta_ephemeris_type": 0,
        "meta_classification_type": "U",
        "meta_norad_cat_id": 30040,
        "meta_element_set_no": 999,
        "meta_rev_at_epoch": 97774,
        "meta_bstar": 0.0019543509,
        "meta_mean_motion_dot": 5.785e-05,
        "meta_mean_motion_ddot": 0,
        "tle_line1": "1 30040U 99025NR  25336.01090641  .00005785  00000+0  19544-2 0  9991",
        "tle_line2": "2 30040  98.2346 352.8524 0032857 345.9735  74.2438 14.36944998977740"
      },
      "geometry": {
        "type": "Point",
        "coordinates": [
          174.69566748666597,
          8.384609693803613
        ]
      }
    },
    {
      "type": "Feature",
      "properties": {
        "norad_id": 30041,
        "name": "FENGYUN 1C DEB",
        "group": "fengyun-1c-debris",
        "lat": -75.09159123894071,
        "lon": -136.23019512348958,
        "alt_km": 831.6185714352014,
        "timestamp": "2025-12-02T15:49:07.462934+00:00",
        "meta_object_name": "FENGYUN 1C DEB",
        "meta_object_id": "1999-025NS",
        "meta_epoch": "2025-12-02T06:21:31.156416",
        "meta_mean_motion": 14.13154017,
        "meta_eccentricity": 0.00344422,
        "meta_inclination": 99.4674,
        "meta_ra_of_asc_node": 82.1638,
        "meta_arg_of_pericenter": 246.3765,
        "meta_mean_anomaly": 167.7559,
        "meta_ephemeris_type": 0,
        "meta_classification_type": "U",
        "meta_norad_cat_id": 30041,
        "meta_element_set_no": 999,
        "meta_rev_at_epoch": 97139,
        "meta_bstar": 0.00062903097,
        "meta_mean_motion_dot": 1.134e-05,
        "meta_mean_motion_ddot": 0,
        "tle_line1": "1 30041U 99025NS  25336.26494394  .00001134  00000+0  62903-3 0  9994",
        "tle_line2": "2 30041  99.4674  82.1638 0034442 246.3765 167.7559 14.13154017971393"
      },
      "geometry": {
        "type": "Point",
        "coordinates": [
          -136.23019512348958,
          -75.09159123894071
        ]
      }
    },
    {
      "type": "Feature",
      "properties": {
        "norad_id": 30043,
        "name": "FENGYUN 1C DEB",
        "group": "fengyun-1c-debris",
        "lat": -77.0550458923818,
        "lon": -146.54492028433017,
        "alt_km": 851.1287110068997,
        "timestamp": "2025-12-02T15:49:07.462945+00:00",
        "meta_object_name": "FENGYUN 1C DEB",
        "meta_object_id": "1999-025NU",
        "meta_epoch": "2025-12-02T06:11:04.215552",
        "meta_mean_motion": 14.2343911,
        "meta_eccentricity": 0.02839769,
        "meta_inclination": 98.628,
        "meta_ra_of_asc_node": 74.4031,
        "meta_arg_of_pericenter": 161.3872,
        "meta_mean_anomaly": 199.7953,
        "meta_ephemeris_type": 0,
        "meta_classification_type": "U",
        "meta_norad_cat_id": 30043,
        "meta_element_set_no": 999,
        "meta_rev_at_epoch": 97196,
        "meta_bstar": 0.0015359154,
        "meta_mean_motion_dot": 5.247e-05,
        "meta_mean_motion_ddot": 0,
        "tle_line1": "1 30043U 99025NU  25336.25768768  .00005247  00000+0  15359-2 0  9995",
        "tle_line2": "2 30043  98.6280  74.4031 0283976 161.3872 199.7953 14.23439110971960"
      },
      "geometry": {
        "type": "Point",
        "coordinates": [
          -146.54492028433017,
          -77.0550458923818
        ]
      }
    },
    {
      "type": "Feature",
      "properties": {
        "norad_id": 30044,
        "name": "FENGYUN 1C DEB",
        "group": "fengyun-1c-debris",
        "lat": -60.716989001142665,
        "lon": 62.27875620473237,
        "alt_km": 690.0444437625556,
        "timestamp": "2025-12-02T15:49:07.462955+00:00",
        "meta_object_name": "FENGYUN 1C DEB",
        "meta_object_id": "1999-025NV",
        "meta_epoch": "2025-12-02T06:25:50.174976",
        "meta_mean_motion": 14.50418041,
        "meta_eccentricity": 0.00790063,
        "meta_inclination": 98.2103,
        "meta_ra_of_asc_node": 256.8168,
        "meta_arg_of_pericenter": 200.1018,
        "meta_mean_anomaly": 159.706,
        "meta_ephemeris_type": 0,
        "meta_classification_type": "U",
        "meta_norad_cat_id": 30044,
        "meta_element_set_no": 999,
        "meta_rev_at_epoch": 97887,
        "meta_bstar": 0.0021688148,
        "meta_mean_motion_dot": 8.783e-05,
        "meta_mean_motion_ddot": 0,
        "tle_line1": "1 30044U 99025NV  25336.26794184  .00008783  00000+0  21688-2 0  9998",
        "tle_line2": "2 30044  98.2103 256.8168 0079006 200.1018 159.7060 14.50418041978871"
      },
      "geometry": {
        "type": "Point",
        "coordinates": [
          62.27875620473237,
          -60.716989001142665
        ]
      }
    },
    {
      "type": "Feature",
      "properties": {
        "norad_id": 30045,
        "name": "FENGYUN 1C DEB",
        "group": "fengyun-1c-debris",
        "lat": 13.438957239400853,
        "lon": 9.614446022726476,
        "alt_km": 863.3085878079091,
        "timestamp": "2025-12-02T15:49:07.462966+00:00",
        "meta_object_name": "FENGYUN 1C DEB",
        "meta_object_id": "1999-025NW",
        "meta_epoch": "2025-12-02T02:32:00.024576",
        "meta_mean_motion": 14.21455027,
        "meta_eccentricity": 0.00954722,
        "meta_inclination": 99.1801,
        "meta_ra_of_asc_node": 11.2536,
        "meta_arg_of_pericenter": 143.2875,
        "meta_mean_anomaly": 280.1871,
        "meta_ephemeris_type": 0,
        "meta_classification_type": "U",
        "meta_norad_cat_id": 30045,
        "meta_element_set_no": 999,
        "meta_rev_at_epoch": 96537,
        "meta_bstar": 0.002243692,
        "meta_mean_motion_dot": 5.095e-05,
        "meta_mean_motion_ddot": 0,
        "tle_line1": "1 30045U 99025NW  25336.10555584  .00005095  00000+0  22437-2 0  9997",
        "tle_line2": "2 30045  99.1801  11.2536 0095472 143.2875 280.1871 14.21455027965375"
      },
      "geometry": {
        "type": "Point",
        "coordinates": [
          9.614446022726476,
          13.438957239400853
        ]
      }
    },
    {
      "type": "Feature",
      "properties": {
        "norad_id": 30047,
        "name": "FENGYUN 1C DEB",
        "group": "fengyun-1c-debris",
        "lat": -35.59950765197603,
        "lon": -54.288491051259975,
        "alt_km": 982.2340167273642,
        "timestamp": "2025-12-02T15:49:07.462977+00:00",
        "meta_object_name": "FENGYUN 1C DEB",
        "meta_object_id": "1999-025NY",
        "meta_epoch": "2025-12-01T23:50:49.537824",
        "meta_mean_motion": 13.94326736,
        "meta_eccentricity": 0.01257121,
        "meta_inclination": 99.9193,
        "meta_ra_of_asc_node": 132.1939,
        "meta_arg_of_pericenter": 351.4443,
        "meta_mean_anomaly": 127.0459,
        "meta_ephemeris_type": 0,
        "meta_classification_type": "U",
        "meta_norad_cat_id": 30047,
        "meta_element_set_no": 999,
        "meta_rev_at_epoch": 95766,
        "meta_bstar": 0.00058742805,
        "meta_mean_motion_dot": 7.83e-06,
        "meta_mean_motion_ddot": 0,
        "tle_line1": "1 30047U 99025NY  25335.99362891  .00000783  00000+0  58743-3 0  9991",
        "tle_line2": "2 30047  99.9193 132.1939 0125712 351.4443 127.0459 13.94326736957661"
      },
      "geometry": {
        "type": "Point",
        "coordinates": [
          -54.288491051259975,
          -35.59950765197603
        ]
      }
    },
    {
      "type": "Feature",
      "properties": {
        "norad_id": 30048,
        "name": "FENGYUN 1C DEB",
        "group": "fengyun-1c-debris",
        "lat": 17.46490589874246,
        "lon": -159.42479486933098,
        "alt_km": 998.8436320364108,
        "timestamp": "2025-12-02T15:49:07.462987+00:00",
        "meta_object_name": "FENGYUN 1C DEB",
        "meta_object_id": "1999-025NZ",
        "meta_epoch": "2025-12-02T04:09:30.191040",
        "meta_mean_motion": 13.79882315,
        "meta_eccentricity": 0.01863754,
        "meta_inclination": 98.6671,
        "meta_ra_of_asc_node": 202.8805,
        "meta_arg_of_pericenter": 273.5914,
        "meta_mean_anomaly": 209.9468,
        "meta_ephemeris_type": 0,
        "meta_classification_type": "U",
        "meta_norad_cat_id": 30048,
        "meta_element_set_no": 999,
        "meta_rev_at_epoch": 94980,
        "meta_bstar": 0.00033082483,
        "meta_mean_motion_dot": 3.5e-06,
        "meta_mean_motion_ddot": 0,
        "tle_line1": "1 30048U 99025NZ  25336.17326610  .00000350  00000+0  33082-3 0  9991",
        "tle_line2": "2 30048  98.6671 202.8805 0186375 273.5914 209.9468 13.79882315949805"
      },
      "geometry": {
        "type": "Point",
        "coordinates": [
          -159.42479486933098,
          17.46490589874246
        ]
      }
    }
  ]
}